*******************************************************************************
Ephemeris / WWW_USER Mon Mar 26 21:08:25 2018 Pasadena, USA      / Horizons    
*******************************************************************************
Target body name: Miranda (705)                   {source: ura111}
Center body name: Uranus Barycenter (7)           {source: DE431mx}
Center-site name: BODY CENTER
*******************************************************************************
Start time      : A.D. 2000-Jan-01 00:00:00.0000 TDB
Stop  time      : A.D. 2010-Jan-01 00:00:00.0000 TDB
Step-size       : 7200 minutes
*******************************************************************************
Center geodetic : 0.00000000,0.00000000,0.0000000 {E-lon(deg),Lat(deg),Alt(km)}
Center cylindric: 0.00000000,0.00000000,0.0000000 {E-lon(deg),Dxy(km),Dz(km)}
Center radii    : (undefined)                                                  
Output units    : AU-D                                                         
Output type     : GEOMETRIC cartesian states
Output format   : 2 (position and velocity)
Reference frame : ICRF/J2000.0                                                 
Coordinate systm: Ecliptic and Mean Equinox of Reference Epoch                 
*******************************************************************************
JDTDB
   X     Y     Z
   VX    VY    VZ
*******************************************************************************
$$SOE
2454484.500000000 = A.D. 2008-Jan-19 00:00:00.0000 TDB 
   8.238511675593298E-04 -2.595185554088985E-04 -9.184204847072577E-05
  -5.696401679397400E-04 -4.846190022143399E-04 -3.781824021263484E-03
2454489.500000000 = A.D. 2008-Jan-24 00:00:00.0000 TDB 
  -7.707707065198365E-04  2.770030171231181E-04  2.839029389107106E-04
   1.400775968837862E-03  2.049101362693343E-04  3.594476362930502E-03
2454494.500000000 = A.D. 2008-Jan-29 00:00:00.0000 TDB 
   6.770505059221517E-04 -2.807425367571687E-04 -4.669261394804854E-04
  -2.159670893022168E-03  9.076917644564649E-05 -3.190238346704773E-03
2454499.500000000 = A.D. 2008-Feb-03 00:00:00.0000 TDB 
  -5.445921288679671E-04  2.674972014785901E-04  6.187976550796283E-04
   2.804524101856156E-03 -3.792516896692726E-04  2.631022324567175E-03
2454504.500000000 = A.D. 2008-Feb-08 00:00:00.0000 TDB 
   3.844285497361263E-04 -2.408616233216632E-04 -7.412050058459524E-04
  -3.282173145052240E-03  6.454804573031392E-04 -1.911113208741160E-03
2454509.500000000 = A.D. 2008-Feb-13 00:00:00.0000 TDB 
  -2.002177175483557E-04  1.993826584271478E-04  8.193470597212753E-04
   3.598297784211141E-03 -8.797214784775149E-04  1.095698407412690E-03
2454514.500000000 = A.D. 2008-Feb-18 00:00:00.0000 TDB 
   9.193543099169532E-06 -1.487094434700469E-04 -8.561270287411275E-04
  -3.698288403360739E-03  1.059431730904713E-03 -2.210638338793003E-04
2454519.500000000 = A.D. 2008-Feb-23 00:00:00.0000 TDB 
   1.871289327613592E-04  8.776440619510416E-05  8.422799868881197E-04
   3.612171998695960E-03 -1.186980082616689E-03 -6.753297625641462E-04
2454524.500000000 = A.D. 2008-Feb-28 00:00:00.0000 TDB 
  -3.677289758783482E-04 -2.435732300029361E-05 -7.867090217577069E-04
  -3.318303156197135E-03  1.243133301374803E-03  1.518499016028936E-03
2454529.500000000 = A.D. 2008-Mar-04 00:00:00.0000 TDB 
   5.340036139761053E-04 -4.304752694216424E-05  6.824048055166134E-04
   2.844710613242891E-03 -1.234579521324600E-03 -2.299223780270548E-03
2454534.500000000 = A.D. 2008-Mar-09 00:00:00.0000 TDB 
  -6.653795543604780E-04  1.052730716301777E-04 -5.472206421461332E-04
  -2.221802519596960E-03  1.156367495233127E-03  2.934499157473680E-03
2454539.500000000 = A.D. 2008-Mar-14 00:00:00.0000 TDB 
   7.656364268273273E-04 -1.645437562976765E-04  3.742318716995909E-04
   1.462044667205883E-03 -1.012211776176631E-03 -3.423657466522545E-03
2454544.500000000 = A.D. 2008-Mar-19 00:00:00.0000 TDB 
  -8.196538245411366E-04  2.119979850319951E-04 -1.890720931940279E-04
  -6.417410652004801E-04  8.167337048766087E-04  3.718552247285040E-03
2454549.500000000 = A.D. 2008-Mar-24 00:00:00.0000 TDB 
   8.319794320986912E-04 -2.500479384803547E-04 -1.466239093761930E-05
  -2.332189486076669E-04 -5.696588332161030E-04 -3.805658894975622E-03
2454554.500000000 = A.D. 2008-Mar-29 00:00:00.0000 TDB 
  -7.963854376711650E-04  2.722372713040042E-04  2.097696183093537E-04
   1.079224959650400E-03  2.980052113189773E-04  3.696360675010803E-03
2454559.500000000 = A.D. 2008-Apr-03 00:00:00.0000 TDB 
   7.187022292735195E-04 -2.809618398256819E-04 -4.002312541661661E-04
  -1.874310287750976E-03 -4.591934763370386E-06 -3.366853364252152E-03
2454564.500000000 = A.D. 2008-Apr-08 00:00:00.0000 TDB 
  -6.003250598126764E-04  2.727654424368000E-04  5.628623343584063E-04
   2.566933111162179E-03 -2.857135273862199E-04  2.872757568836845E-03
2454569.500000000 = A.D. 2008-Apr-13 00:00:00.0000 TDB 
   4.504762964589646E-04 -2.507619122523192E-04 -6.998178812836931E-04
  -3.110199071749362E-03  5.604882517093828E-04 -2.203313765328997E-03
2454574.500000000 = A.D. 2008-Apr-18 00:00:00.0000 TDB 
  -2.739179986904568E-04  2.135801953392010E-04  7.941984459372780E-04
   3.499723758248954E-03 -8.070368570920689E-04  1.425296835645391E-03
2454579.500000000 = A.D. 2008-Apr-23 00:00:00.0000 TDB 
   8.551026494476608E-05 -1.661634426038856E-04 -8.488877961902439E-04
  -3.677567821496882E-03  1.003623009823783E-03 -5.648304666225752E-04
2454584.500000000 = A.D. 2008-Apr-28 00:00:00.0000 TDB 
   1.118976746911825E-04  1.076206760782120E-04  8.530704435136367E-04
   3.672700057940291E-03 -1.151217762532039E-03 -3.328398852622553E-04
2454589.500000000 = A.D. 2008-May-03 00:00:00.0000 TDB 
  -2.979258405062002E-04 -4.542851705418922E-05 -8.148143031961664E-04
  -3.452551284602405E-03  1.228517917273930E-03  1.198218512219895E-03
2454594.500000000 = A.D. 2008-May-08 00:00:00.0000 TDB 
   4.732325069015503E-04 -2.179341369039305E-05  7.265656374968876E-04
   3.048530021198222E-03 -1.242458577758480E-03 -2.016690267573742E-03
2454599.500000000 = A.D. 2008-May-13 00:00:00.0000 TDB 
  -6.170775712153561E-04  8.509916224003409E-05 -6.047342338293621E-04
  -2.481121731759604E-03  1.185405227900177E-03  2.704434809174993E-03
2454604.500000000 = A.D. 2008-May-18 00:00:00.0000 TDB 
   7.321509349951815E-04 -1.463236645791143E-04  4.426990750580883E-04
   1.766971419816427E-03 -1.062358395318746E-03 -3.260879037022301E-03
2454609.500000000 = A.D. 2008-May-23 00:00:00.0000 TDB 
  -8.028420356905837E-04  1.968328438582123E-04 -2.644889500841833E-04
  -9.734308063268241E-04  8.840129864794896E-04  3.628036283874254E-03
2454614.500000000 = A.D. 2008-May-28 00:00:00.0000 TDB 
   8.327722277336718E-04 -2.387751278382294E-04  6.332572875278137E-05
   1.073470450768005E-04 -6.514570924938579E-04 -3.798564863781311E-03
2454619.500000000 = A.D. 2008-Jun-02 00:00:00.0000 TDB 
  -8.147759977175082E-04  2.654421342456635E-04  1.329886083695299E-04
   7.473691050740945E-04  3.894127718527008E-04  3.768810006645736E-03
2454624.500000000 = A.D. 2008-Jun-07 00:00:00.0000 TDB 
   7.536220190430675E-04 -2.791297605462946E-04 -3.298428607212882E-04
  -1.573229305147202E-03 -9.978317390953918E-05 -3.516847797127631E-03
2454629.500000000 = A.D. 2008-Jun-12 00:00:00.0000 TDB 
  -6.500034858879537E-04  2.759478274214417E-04  5.021462171967599E-04
   2.309686093114524E-03 -1.911166409497376E-04  3.091341722887417E-03
2454634.500000000 = A.D. 2008-Jun-17 00:00:00.0000 TDB 
   5.120885565661984E-04 -2.587932872235131E-04 -6.525309036446889E-04
  -2.914136843609103E-03  4.728692583818122E-04 -2.476722960580122E-03
2454639.500000000 = A.D. 2008-Jun-22 00:00:00.0000 TDB 
  -3.446251006912224E-04  2.261215793968373E-04  7.624289687968195E-04
   3.371144979366981E-03 -7.295550425181177E-04  1.741096147838452E-03
2454644.500000000 = A.D. 2008-Jun-27 00:00:00.0000 TDB 
   1.606128655452734E-04 -1.822875959168977E-04 -8.345446450014082E-04
  -3.625659703720058E-03  9.416601876617110E-04 -9.023892376419526E-04
2454649.500000000 = A.D. 2008-Jul-02 00:00:00.0000 TDB 
   3.522345030702131E-05  1.268472901469766E-04  8.569110372733076E-04
   3.700569899309196E-03 -1.107353627486233E-03  1.367859476369724E-05
2454654.500000000 = A.D. 2008-Jul-07 00:00:00.0000 TDB 
  -2.251394917472688E-04 -6.630240901405912E-05 -8.365936210329951E-04
  -3.556378177880943E-03  1.205208386976855E-03  8.660953645278393E-04
2454659.500000000 = A.D. 2008-Jul-12 00:00:00.0000 TDB 
   4.076194898631146E-04 -1.414657148464083E-07  7.653845220477607E-04
   3.228403551281163E-03 -1.242279143884621E-03 -1.714876857181464E-03
2454664.500000000 = A.D. 2008-Jul-17 00:00:00.0000 TDB 
  -5.626764749104135E-04  6.402668418386198E-05 -6.583787985048471E-04
  -2.721764634870907E-03  1.206993257260681E-03  2.450719445754262E-03
2454669.500000000 = A.D. 2008-Jul-22 00:00:00.0000 TDB 
   6.919301425880294E-04 -1.269710671222585E-04  5.082481618166793E-04
   2.058927637929636E-03 -1.105834447983263E-03 -3.071013295674843E-03
2454674.500000000 = A.D. 2008-Jul-27 00:00:00.0000 TDB 
  -7.788566654735033E-04  1.803049540483454E-04 -3.378990287579837E-04
  -1.297084423199466E-03  9.455941647790888E-04  3.509652855553539E-03
2454679.500000000 = A.D. 2008-Aug-01 00:00:00.0000 TDB 
   8.265298908382896E-04 -2.259829786417216E-04  1.407218566670865E-04
   4.457785532018385E-04 -7.284775731703333E-04 -3.761671524971653E-03
2454684.500000000 = A.D. 2008-Aug-06 00:00:00.0000 TDB 
  -8.264371925180350E-04  2.570960204629151E-04  5.594026547486098E-05
   4.115577463932896E-04  4.770548154722076E-04  3.809466595268677E-03
2454689.500000000 = A.D. 2008-Aug-11 00:00:00.0000 TDB 
   7.825096173829704E-04 -2.756664865816174E-04 -2.576682952281863E-04
  -1.260954431877364E-03 -1.932662634009788E-04 -3.637560437934491E-03
